E-ST@R-II               
1 41459U 16025D   21331.84925096  .00004350  00000+0  20968-3 0  9999
2 41459  98.1646 118.1555 0155938 231.2419 127.4781 15.09212947307053
AAUSAT 4                
1 41460U 16025E   21331.38811486  .00007802  00000+0  34988-3 0  9999
2 41460  98.1621 122.4169 0141909 213.8413 145.3769 15.12872544307335
BEESAT-4                
1 41619U 16040W   21331.86613700  .00003744  00000+0  14513-3 0  9997
2 41619  97.2490  23.2890 0011962 110.6343 249.6180 15.26677461289931
CANX-7                  
1 41788U 16059F   21331.88181701  .00028674  00000+0  26823-2 0  9992
2 41788  98.2456  83.9463 0016142  25.5250 334.6722 14.93954968278192
RAVAN                   
1 41849U 16067B   21331.58393871  .00001668  00000+0  14122-3 0  9993
2 41849  97.9872  98.1762 0005611 297.2168  62.8482 14.99437795275733
CELTEE 1                
1 41850U 16067C   21331.78547096  .00000073  00000+0  11530-4 0  9997
2 41850  97.9747  94.2810 0007579 293.9040  66.1387 14.97668763275565
OPTICUBE 04             
1 41851U 16067D   21331.76265877  .00001063  00000+0  97124-4 0  9993
2 41851  97.9730  93.5181 0007180 296.2793  63.7690 14.97254005275526
AEROCUBE 8D             
1 41852U 16067E   21331.81942171  .00001221  00000+0  11015-3 0  9999
2 41852  97.9719  93.4836 0008029 293.5110  66.5267 14.97452214275518
AEROCUBE 8C             
1 41853U 16067F   21331.32843902  .00000367  00000+0  36876-4 0  9991
2 41853  97.9711  92.8318 0009047 297.5321  62.4980 14.97417013275434
PROMETHEUS 2-1          
1 41854U 16067G   21331.60997196  .00001296  00000+0  11487-3 0  9990
2 41854  97.9717  93.8903 0009122 291.1758  68.8488 14.98035326275516
PROMETHEUS 2-3          
1 41855U 16067H   21331.60548222  .00001135  00000+0  10125-3 0  9993
2 41855  97.9720  93.9494 0009516 291.9988  68.0222 14.98052825275518
INS-1B                  
1 41954U 17008G   21331.60716544  .00003962  00000+0  15079-3 0  9996
2 41954  97.2888  31.0550 0007347 226.0138 134.0496 15.27301067265905
BGUSAT                  
1 41999U 17008BD  21331.83456710  .00007049  00000+0  23013-3 0  9993
2 41999  97.3086  39.2644 0005998 220.6452 139.4343 15.32056039265708
DIDO-2                  
1 42000U 17008BE  21331.40753219  .00002062  00000+0  82810-4 0  9995
2 42000  97.2881  30.8586 0006448 251.6933 108.3605 15.26045596265238
PEASSS                  
1 42015U 17008BV  21331.81664340  .00003277  00000+0  12303-3 0  9990
2 42015  97.2933  34.2154 0004439 245.1553 114.9225 15.27894676265957
AL-FARABI 1             
1 42016U 17008BW  21331.84599184  .00004410  00000+0  15716-3 0  9998
2 42016  97.2989  36.4669 0004273 239.9608 120.1209 15.29428480266198
NAYIF-1 (EO-88)         
1 42017U 17008BX  21331.61126651  .00004905  00000+0  17415-3 0  9996
2 42017  97.2982  36.2428 0004307 239.9975 120.0838 15.29492350266181
UCLSAT                  
1 42765U 17036A   21331.87561886  .00003278  00000+0  13062-3 0  9994
2 42765  97.2293  16.1604 0009408 327.7833  32.2830 15.25871459247086
LITUANICASAT-2          
1 42768U 17036D   21331.70228778  .00006630  00000+0  24429-3 0  9993
2 42768  97.2377  17.3907 0011608 311.9877  48.0373 15.28083940246381
AALTO-1                 
1 42775U 17036L   21331.36601751  .00002018  00000+0  87782-4 0  9997
2 42775  97.2269  11.7203 0012261 327.0924  32.9549 15.23303031245997
URSA MAIOR              
1 42776U 17036M   21331.86263705  .00002222  00000+0  95455-4 0  9999
2 42776  97.2286  12.7649 0011905 324.4010  35.6432 15.23634855246097
COMPASS 2               
1 42777U 17036N   21331.56186231  .00005070  00000+0  19334-3 0  9990
2 42777  97.2360  17.1936 0009866 315.8605  44.1846 15.27077112246293
DIAMOND RED             
1 42783U 17036U   21331.85136412  .00002450  00000+0  10191-3 0  9996
2 42783  97.2298  14.7200 0010449 332.4215  27.6468 15.24647251246209
PEGASUS                 
1 42784U 17036V   21331.83962967  .00002961  00000+0  12012-3 0  9998
2 42784  97.2303  15.5559 0010128 329.9583  30.1074 15.25336249246256
DIAMOND GREEN           
1 42785U 17036W   21331.85084222  .00002579  00000+0  10715-3 0  9993
2 42785  97.2302  14.7730 0010319 333.0005  27.0695 15.24639914246275
DIAMOND BLUE            
1 42786U 17036X   21331.84987954  .00002556  00000+0  10621-3 0  9998
2 42786  97.2303  14.7645 0010286 333.6081  26.4632 15.24640928246276
NUDTSAT                 
1 42787U 17036Y   21331.94197441  .00004160  00000+0  15558-3 0  9991
2 42787  97.2342  18.6594 0009556 322.6683  37.3888 15.27829139246281
SUCHAI                  
1 42788U 17036Z   21331.87591904  .00003734  00000+0  14632-3 0  9994
2 42788  97.2311  16.8128 0009485 326.3086  33.7549 15.26344136246406
SKCUBE                  
1 42789U 17036AA  21331.87175173  .00003293  00000+0  13073-3 0  9999
2 42789  97.2306  16.4350 0009434 327.0035  33.0614 15.25990872246308
VZLUSAT-1               
1 42790U 17036AB  21331.87429361  .00004877  00000+0  18225-3 0  9995
2 42790  97.2341  18.5780 0008541 320.8726  39.1895 15.27781356246423
ROBUSTA-1B              
1 42792U 17036AD  21331.87811308  .00003385  00000+0  13316-3 0  9992
2 42792  97.2309  16.8898 0009038 327.4426  32.6255 15.26282960246347
CICERO 6                
1 42793U 17036AE  21331.54950781  .00002519  00000+0  10429-3 0  9996
2 42793  97.2280  15.0180 0008796 335.0584  25.0228 15.24794335246282
CORVUS BC2              
1 42846U 17042X   21331.89995145  .00000559  00000+0  59605-4 0  9995
2 42846  97.4463 195.3334 0008497 319.3511  40.7073 14.92432175238213
CORVUS BC1              
1 42847U 17042Y   21331.86000204  .00000348  00000+0  38938-4 0  9998
2 42847  97.4465 195.5644 0008147 318.6920  41.3683 14.92528482238211
MIRATA                  
1 43015U 17073C   21331.62064644  .00001928  00000+0  14859-3 0  9992
2 43015  97.6900 229.5986 0248321 122.9034 239.6336 14.81469242217360
MAKERSAT 0              
1 43016U 17073D   21331.67991410  .00001300  00000+0  10277-3 0  9992
2 43016  97.6929 229.5549 0252836 125.6417 236.8629 14.80505596217320
AEROCUBE 7B (OCSD B)    
1 43042U 17071F   21331.75118487  .00016923  00000+0  27407-3 0  9993
2 43042  51.6372 340.5151 0001795 158.4946 201.6120 15.52911295224164
AEROCUBE 7C (OCSD C)    
1 43043U 17071G   21331.73895389  .00016167  00000+0  26557-3 0  9990
2 43043  51.6359 341.1680 0001880 168.3208 191.7825 15.52552142224129
CHEFSAT                 
1 43044U 17071H   21331.87116481  .00160855  00000+0  73890-3 0  9991
2 43044  51.6262 283.9084 0005975 108.9322 251.2328 15.82617018224903
ASGARDIA 1              
1 43049U 17071N   21331.58012313  .00014862  00000+0  24925-3 0  9994
2 43049  51.6380 341.7695 0000268 117.8677 242.2340 15.52042965224108
ISARA                   
1 43050U 17071P   21331.54822103  .00066007  00000+0  53070-3 0  9999
2 43050  51.6282 299.5414 0004094  81.2929 278.8532 15.70321070224661
PROPCUBE 2 (FAUNA)      
1 43052U 17071R   21331.74846811  .00017692  00000+0  28003-3 0  9999
2 43052  51.6360 336.1257 0000597  77.9588 282.1470 15.53514110224186
CORVUS BC3              
1 43118U 18004H   21331.65353888  .00002242  00000+0  92882-4 0  9998
2 43118  97.3880  42.1190 0009815   4.8967 355.2365 15.24918020215445
MICROMAS-2A             
1 43131U 18004W   21331.63489087  .00006168  00000+0  22137-3 0  9998
2 43131  97.3980  46.5511 0007627 356.6425   3.4763 15.29024855215681
SPACEBEE-4              
1 43139U 18004AE  21331.44526835  .00008153  00000+0  26483-3 0  9992
2 43139  97.4061  49.5147 0006455 353.5134   6.6023 15.32171862215824
SPACEBEE-3              
1 43140U 18004AF  21331.45604020  .00010731  00000+0  32005-3 0  9990
2 43140  97.4098  51.6144 0005692 348.5285  11.5828 15.34815225215941
SPACEBEE-2              
1 43141U 18004AG  21331.45032870  .00012330  00000+0  35638-3 0  9991
2 43141  97.4123  52.4118 0005217 345.3076  14.8015 15.35770844215983
SPACEBEE-1              
1 43142U 18004AH  21331.46214507  .00013408  00000+0  37311-3 0  9999
2 43142  97.4136  53.2506 0005080 340.1820  19.9226 15.36937534216024
CICERO 7                
1 43143U 18004AJ  21331.86115220  .00004945  00000+0  17945-3 0  9993
2 43143  97.3954  46.7191 0006346   8.9278 351.2074 15.28774568215738
GOMX-4B                 
1 43196U 18015E   21331.84020618  .00001091  00000+0  46061-4 0  9998
2 43196  97.5074 105.0775 0019228  49.3890 310.9016 15.25330438212411
GOMX-4A                 
1 43197U 18015F   21331.86106640  .00002142  00000+0  85426-4 0  9997
2 43197  97.5067 105.5105 0019305  49.7595  74.5657 15.26155429212452
AEROCUBE 12A            
1 43556U 18046C   21331.57004985  .00005536  00000+0  18092-3 0  9991
2 43556  51.6401  82.6072 0007461  31.3497 328.7929 15.33267715188290
AEROCUBE 12B            
1 43557U 18046D   21331.80276159  .00004646  00000+0  15756-3 0  9997
2 43557  51.6396  84.1132 0007576  31.4115 328.7317 15.32456927188243
SURFSAT                 
1 43614U 18070B   21331.89309580  .00007695  00000+0  16539-3 0  9999
2 43614  93.0255  14.1836 0016153  89.0668 271.2440 15.44536325179870
CP7 (DAVE)              
1 43615U 18070C   21331.88096500  .00007586  00000+0  16523-3 0  9996
2 43615  93.0258  14.1096 0016383  89.3370 270.9764 15.44138270179850
ELFIN-B                 
1 43616U 18070D   21331.85074736  .00012705  00000+0  23709-3 0  9994
2 43616  93.0209  14.5452 0015573  85.3526 274.9511 15.48626836180025
ELFIN-A                 
1 43617U 18070E   21331.55529896  .00014311  00000+0  26002-3 0  9998
2 43617  93.0259  15.4403 0014780  83.7569 276.5374 15.49398771180003
CUBEBEL-1 (BSUSAT-1)    
1 43666U 18083E   21331.93639350  .00002439  00000+0  11582-3 0  9990
2 43666  97.4425 358.2016 0013172 324.4346 120.2279 15.20127165170846
CICERO 10               
1 43690U 18088A   21331.74406182  .00003481  00000+0  15051-3 0  9999
2 43690  85.0368  89.8676 0014882 162.1883 197.9884 15.21978155169051
